{
  "type": "FeatureCollection",
  "features": [
    {
      "type": "Feature",
      "properties": {
        "norad_id": 43567,
        "name": "GSAT0220 (GALILEO 24)",
        "group": "gnss",
        "lat": 34.96932554187056,
        "lon": 13.273744331937984,
        "alt_km": 23225.332853719945,
        "timestamp": "2025-12-24T09:46:31.247182+00:00",
        "meta_object_name": "GSAT0220 (GALILEO 24)",
        "meta_object_id": "2018-060D",
        "meta_epoch": "2025-12-23T03:56:18.956256",
        "meta_mean_motion": 1.70475727,
        "meta_eccentricity": 0.00061193,
        "meta_inclination": 57.2279,
        "meta_ra_of_asc_node": 346.5416,
        "meta_arg_of_pericenter": 288.3355,
        "meta_mean_anomaly": 71.6054,
        "meta_ephemeris_type": 0,
        "meta_classification_type": "U",
        "meta_norad_cat_id": 43567,
        "meta_element_set_no": 999,
        "meta_rev_at_epoch": 4617,
        "meta_bstar": 0,
        "meta_mean_motion_dot": -6.3e-07,
        "meta_mean_motion_ddot": 0,
        "tle_line1": "1 43567U 18060D   25357.16410829 -.00000063  00000+0  00000+0 0  9991",
        "tle_line2": "2 43567  57.2279 346.5416 0006119 288.3355  71.6054  1.70475727 46170"
      },
      "geometry": {
        "type": "Point",
        "coordinates": [
          13.273744331937984,
          34.96932554187056
        ]
      }
    },
    {
      "type": "Feature",
      "properties": {
        "norad_id": 43581,
        "name": "BEIDOU-3 M5 (C23)",
        "group": "gnss",
        "lat": -40.40309529401005,
        "lon": 46.35202540111784,
        "alt_km": 21536.443844909907,
        "timestamp": "2025-12-24T09:46:31.247194+00:00",
        "meta_object_name": "BEIDOU-3 M5 (C23)",
        "meta_object_id": "2018-062A",
        "meta_epoch": "2025-12-22T23:39:18.716256",
        "meta_mean_motion": 1.86228796,
        "meta_eccentricity": 0.00019159,
        "meta_inclination": 54.09,
        "meta_ra_of_asc_node": 188.2947,
        "meta_arg_of_pericenter": 2.7152,
        "meta_mean_anomaly": 357.3266,
        "meta_ephemeris_type": 0,
        "meta_classification_type": "U",
        "meta_norad_cat_id": 43581,
        "meta_element_set_no": 999,
        "meta_rev_at_epoch": 5035,
        "meta_bstar": 0,
        "meta_mean_motion_dot": 9.6e-07,
        "meta_mean_motion_ddot": 0,
        "tle_line1": "1 43581U 18062A   25356.98563329  .00000096  00000+0  00000+0 0  9997",
        "tle_line2": "2 43581  54.0900 188.2947 0001915   2.7152 357.3266  1.86228796 50357"
      },
      "geometry": {
        "type": "Point",
        "coordinates": [
          46.35202540111784,
          -40.40309529401005
        ]
      }
    },
    {
      "type": "Feature",
      "properties": {
        "norad_id": 43582,
        "name": "BEIDOU-3 M6 (C24)",
        "group": "gnss",
        "lat": -27.67762226678995,
        "lon": 165.88805405026284,
        "alt_km": 21529.15168799236,
        "timestamp": "2025-12-24T09:46:31.247205+00:00",
        "meta_object_name": "BEIDOU-3 M6 (C24)",
        "meta_object_id": "2018-062B",
        "meta_epoch": "2025-12-21T18:35:38.749056",
        "meta_mean_motion": 1.86229862,
        "meta_eccentricity": 0.00078412,
        "meta_inclination": 54.0893,
        "meta_ra_of_asc_node": 188.325,
        "meta_arg_of_pericenter": 48.2344,
        "meta_mean_anomaly": 311.88,
        "meta_ephemeris_type": 0,
        "meta_classification_type": "U",
        "meta_norad_cat_id": 43582,
        "meta_element_set_no": 999,
        "meta_rev_at_epoch": 5033,
        "meta_bstar": 0,
        "meta_mean_motion_dot": 9.4e-07,
        "meta_mean_motion_ddot": 0,
        "tle_line1": "1 43582U 18062B   25355.77475404  .00000094  00000+0  00000+0 0  9998",
        "tle_line2": "2 43582  54.0893 188.3250 0007841  48.2344 311.8800  1.86229862 50331"
      },
      "geometry": {
        "type": "Point",
        "coordinates": [
          165.88805405026284,
          -27.67762226678995
        ]
      }
    },
    {
      "type": "Feature",
      "properties": {
        "norad_id": 43602,
        "name": "BEIDOU-3 M12 (C26)",
        "group": "gnss",
        "lat": 5.358390541400478,
        "lon": -169.14473258564422,
        "alt_km": 21506.766985964896,
        "timestamp": "2025-12-24T09:46:31.247217+00:00",
        "meta_object_name": "BEIDOU-3 M12 (C26)",
        "meta_object_id": "2018-067A",
        "meta_epoch": "2025-12-22T18:52:41.106432",
        "meta_mean_motion": 1.86227882,
        "meta_eccentricity": 0.0009247,
        "meta_inclination": 54.1835,
        "meta_ra_of_asc_node": 187.0221,
        "meta_arg_of_pericenter": 41.599,
        "meta_mean_anomaly": 318.5103,
        "meta_ephemeris_type": 0,
        "meta_classification_type": "U",
        "meta_norad_cat_id": 43602,
        "meta_element_set_no": 999,
        "meta_rev_at_epoch": 4983,
        "meta_bstar": 0,
        "meta_mean_motion_dot": 9.5e-07,
        "meta_mean_motion_ddot": 0,
        "tle_line1": "1 43602U 18067A   25356.78658688  .00000095  00000+0  00000+0 0  9996",
        "tle_line2": "2 43602  54.1835 187.0221 0009247  41.5990 318.5103  1.86227882 49833"
      },
      "geometry": {
        "type": "Point",
        "coordinates": [
          -169.14473258564422,
          5.358390541400478
        ]
      }
    },
    {
      "type": "Feature",
      "properties": {
        "norad_id": 43603,
        "name": "BEIDOU-3 M11 (C25)",
        "group": "gnss",
        "lat": -53.65679695943636,
        "lon": 107.7926631898382,
        "alt_km": 21542.37063631483,
        "timestamp": "2025-12-24T09:46:31.247228+00:00",
        "meta_object_name": "BEIDOU-3 M11 (C25)",
        "meta_object_id": "2018-067B",
        "meta_epoch": "2025-12-23T23:52:51.142368",
        "meta_mean_motion": 1.86227356,
        "meta_eccentricity": 0.0005631,
        "meta_inclination": 54.1809,
        "meta_ra_of_asc_node": 186.9452,
        "meta_arg_of_pericenter": 37.7984,
        "meta_mean_anomaly": 322.2751,
        "meta_ephemeris_type": 0,
        "meta_classification_type": "U",
        "meta_norad_cat_id": 43603,
        "meta_element_set_no": 999,
        "meta_rev_at_epoch": 4988,
        "meta_bstar": 0,
        "meta_mean_motion_dot": 1.01e-06,
        "meta_mean_motion_ddot": 0,
        "tle_line1": "1 43603U 18067B   25357.99503637  .00000101  00000+0  00000+0 0  9992",
        "tle_line2": "2 43603  54.1809 186.9452 0005631  37.7984 322.2751  1.86227356 49884"
      },
      "geometry": {
        "type": "Point",
        "coordinates": [
          107.7926631898382,
          -53.65679695943636
        ]
      }
    },
    {
      "type": "Feature",
      "properties": {
        "norad_id": 43622,
        "name": "BEIDOU-3 M13 (C32)",
        "group": "gnss",
        "lat": -42.719010467773664,
        "lon": 30.752963087004208,
        "alt_km": 21515.37653309265,
        "timestamp": "2025-12-24T09:46:31.247239+00:00",
        "meta_object_name": "BEIDOU-3 M13 (C32)",
        "meta_object_id": "2018-072A",
        "meta_epoch": "2025-12-22T08:10:31.412640",
        "meta_mean_motion": 1.86231166,
        "meta_eccentricity": 0.00064111,
        "meta_inclination": 56.4667,
        "meta_ra_of_asc_node": 68.5024,
        "meta_arg_of_pericenter": 297.4685,
        "meta_mean_anomaly": 62.5173,
        "meta_ephemeris_type": 0,
        "meta_classification_type": "U",
        "meta_norad_cat_id": 43622,
        "meta_element_set_no": 999,
        "meta_rev_at_epoch": 4936,
        "meta_bstar": 0,
        "meta_mean_motion_dot": -2.9e-07,
        "meta_mean_motion_ddot": 0,
        "tle_line1": "1 43622U 18072A   25356.34064135 -.00000029  00000+0  00000+0 0  9992",
        "tle_line2": "2 43622  56.4667  68.5024 0006411 297.4685  62.5173  1.86231166 49361"
      },
      "geometry": {
        "type": "Point",
        "coordinates": [
          30.752963087004208,
          -42.719010467773664
        ]
      }
    },
    {
      "type": "Feature",
      "properties": {
        "norad_id": 43623,
        "name": "BEIDOU-3 M14 (C33)",
        "group": "gnss",
        "lat": 29.194688447110714,
        "lon": 90.16296615953073,
        "alt_km": 21520.871414265894,
        "timestamp": "2025-12-24T09:46:31.247252+00:00",
        "meta_object_name": "BEIDOU-3 M14 (C33)",
        "meta_object_id": "2018-072B",
        "meta_epoch": "2025-12-23T06:43:13.861056",
        "meta_mean_motion": 1.86231163,
        "meta_eccentricity": 0.00035931,
        "meta_inclination": 56.4696,
        "meta_ra_of_asc_node": 68.4654,
        "meta_arg_of_pericenter": 327.0772,
        "meta_mean_anomaly": 32.9541,
        "meta_ephemeris_type": 0,
        "meta_classification_type": "U",
        "meta_norad_cat_id": 43623,
        "meta_element_set_no": 999,
        "meta_rev_at_epoch": 4937,
        "meta_bstar": 0,
        "meta_mean_motion_dot": -2.6e-07,
        "meta_mean_motion_ddot": 0,
        "tle_line1": "1 43623U 18072B   25357.28002154 -.00000026  00000+0  00000+0 0  9997",
        "tle_line2": "2 43623  56.4696  68.4654 0003593 327.0772  32.9541  1.86231163 49375"
      },
      "geometry": {
        "type": "Point",
        "coordinates": [
          90.16296615953073,
          29.194688447110714
        ]
      }
    }
  ]
}